#aV2020  3 21  0  0  0.00000000     288 DD+AD WGS84 FIT  NGA
## 2097 518400.00000000   300.00000000 58929 0.0000000000000
+   32     1  2  3  4  5  6  7  8  9 10 11 12 13 14 15 16 17
+         18 19 20 21 22 23 24 25 26 27 28 29 30 31 32  0  0
+          0  0  0  0  0  0  0  0  0  0  0  0  0  0  0  0  0
+          0  0  0  0  0  0  0  0  0  0  0  0  0  0  0  0  0
+          0  0  0  0  0  0  0  0  0  0  0  0  0  0  0  0  0
++         2  2  2  2  2  2  2  2  2  2  2  2  2  2  2  2  2
++         2  2  2  2  2  2  2  2  2  2  2  2  2  2  2  0  0
++         0  0  0  0  0  0  0  0  0  0  0  0  0  0  0  0  0
++         0  0  0  0  0  0  0  0  0  0  0  0  0  0  0  0  0
++         0  0  0  0  0  0  0  0  0  0  0  0  0  0  0  0  0
%c cc cc ccc ccc cccc cccc cccc cccc ccccc ccccc ccccc ccccc
%c cc cc ccc ccc cccc cccc cccc cccc ccccc ccccc ccccc ccccc
%f  0.0000000  0.000000000  0.00000000000  0.000000000000000
%f  0.0000000  0.000000000  0.00000000000  0.000000000000000
%i    0    0    0    0      0      0      0      0         0
%i    0    0    0    0      0      0      0      0         0
/*      NGA, ST. LOUIS,MO.                                  
/*   EPHEMERIS COMPUTED FROM 2 DAYS OF DATA                 
/*   EPOCHA v5 SMOOTHER                                     
/*   G1762 IERS2010 SATAF SATAPC                            
*  2020  3 21 10 20  0.00000000
P  1 -13755.715046   7609.635423  21139.036190   -332.988303                    
V  1  -2477.463968 -27247.634126   8438.632469     -0.125374                    
P  2  13316.514266  16323.375938 -15577.640884   -425.674539                    
V  2    748.335929  21036.909644  21729.138146     -0.066442                    
P  3 -23049.618852  12602.236045   3478.836831   -123.629292                    
V  3   2200.329290  -4785.976055  31505.039383     -0.100879                    
P  4 -19620.481953   3520.138597 -17557.245790    -65.241725                    
V  4 -18942.543177 -11888.954605  18747.770622     -0.052472                    
P  5  17923.045338   4105.299115 -19367.458134     -9.479052                    
V  5 -18969.317100  15201.210990 -14238.120486     -0.006405                    
P  6   7116.118804  24268.646895  -7990.629226   -235.748966                    
V  6  -1412.351320  10339.849052  29979.877967     -0.083783                    
P  7  -6239.962149  23120.977899 -10652.221183   -240.614069                    
V  7  -3910.328730 -13941.805359 -27703.685237     -0.085725                    
P  8 -24721.403731  -4984.243179   8756.013240    -27.865237                    
V  8  -9061.075138  -6586.310037 -29159.978857     -0.013849                    
P  9 -10034.870774  12122.642630 -21451.504655   -181.125000                    
V  9 -24380.288999 -11927.783095   4657.688923     -0.080801                    
P 10   3008.397241 -18100.670203  19202.012726   -284.424367                    
V 10  20873.375893 -12461.307946 -15310.503048     -0.124757                    
P 11 -18213.913494  -2600.636386  18567.050027   -327.883468                    
V 11 -10761.547951 -22548.088467 -13664.989185      0.108012                    
P 12  23994.261253  -9702.579879   5319.262021    138.287899                    
V 12  -4954.037989   5567.244538  31305.523424     -0.042635                    
P 13  23041.977374  13037.050654   2526.448015     -4.133471                    
V 13   1424.177048   3927.375161 -31652.684895      0.029101                    
P 14 -16020.824287 -18422.196577  11022.106156    -24.896255                    
V 14  12682.694585   4933.500909  27345.421269      0.024954                    
P 15  25102.416178   2315.566236   8637.382396   -243.488281                    
V 15   9517.468795   6962.247501 -28129.001799      0.026145                    
P 16 -17978.120312  -4902.763963 -19313.719586   -137.468350                    
V 16  20509.709978 -12235.241781 -15723.429501     -0.043048                    
P 17   7206.699749  18113.495040  18484.179321    235.660545                    
V 17 -20157.698507 -10127.107443  18156.468210      0.063421                    
P 18  10223.520579 -18685.069007 -15867.015904    126.547844                    
V 18   2799.734482  20033.856406 -21812.226829      0.147411                    
P 19  14551.983590  18494.466417  12020.899170   -182.861075                    
V 19 -14312.085955  -6708.591852  26983.183145      0.051326                    
P 20  12152.212873 -21032.780387  10406.716164    527.859570                    
V 20  12340.093956  -6364.442259 -27270.821412     -0.000231                    
P 21   3298.213959 -24512.310697  -9229.200237    -24.882620                    
V 21   4485.545225  12286.103142 -28341.499853      0.051407                    
P 22 -22770.278620   6886.732404  11902.988844   -785.436473                    
V 22   9624.429156 -11803.675373  25845.036197      0.000872                    
P 23 -19516.355860   4738.821323 -17199.566281   -128.160432                    
V 23 -19630.159045 -11083.202137  18448.887337      0.027194                    
P 24  14831.075751  -5824.871180  21016.115855    -10.633171                    
V 24   4216.338349  26961.383291   4817.056469     -0.005513                    
P 25  19426.760582 -17235.011059  -5049.366502     -7.907881                    
V 25   6663.382863  -1126.697053  31187.873859      0.020243                    
P 26  -9484.846511 -12294.296799 -21581.749938    171.838686                    
V 26  22227.072334 -15983.190668   -443.909192      0.075030                    
P 27 -23467.939397 -12726.837290  -1749.873702   -244.581519                    
V 27   2688.989987   -866.057894 -31820.935725     -0.107167                    
P 28  -3039.963574  17378.933873  20485.041542    731.331322                    
V 28 -21952.941815  11180.268502 -12985.975421     -0.027503                    
P 29  12337.166984  -9397.118845 -21601.522520    -61.795721                    
V 29  23409.231156  13987.024178   7280.849714     -0.091818                    
P 30    783.451233  26435.052629   -159.417835   -180.337050                    
V 30  -3706.274319   -114.824001 -31388.688432     -0.086788                    
P 31  -8397.041643 -22637.889910 -10562.072479    -30.825446                    
V 31   2311.185057 -13631.439510  27924.780113     -0.024693                    
P 32  -8983.039507 -17977.358775  17511.482525    241.325650                    
V 32  20589.783718   8050.635804  18764.093026      0.089765                    
EOF
